<?xml version="1.0" encoding="UTF-8"?>
<kml xmlns="http://www.opengis.net/kml/2.2">
<Document>
<name>Maple 10K landing zones</name>
<description>200 simulated flights, wind 4.167 m/s (13.67 ft/s). Ellipses hold about 86% of landings (2 sigma).</description>
<Style id="s0"><IconStyle><color>ffd6782a</color><scale>0.5</scale><Icon><href>http://maps.google.com/mapfiles/kml/shapes/shaded_dot.png</href></Icon></IconStyle><LabelStyle><scale>0</scale></LabelStyle><LineStyle><color>ffd6782a</color><width>3</width></LineStyle><PolyStyle><color>40d6782a</color></PolyStyle></Style>
<Style id="s1"><IconStyle><color>ff0f48d9</color><scale>0.5</scale><Icon><href>http://maps.google.com/mapfiles/kml/shapes/shaded_dot.png</href></Icon></IconStyle><LabelStyle><scale>0</scale></LabelStyle><LineStyle><color>ff0f48d9</color><width>3</width></LineStyle><PolyStyle><color>400f48d9</color></PolyStyle></Style>
<Style id="s2"><IconStyle><color>ff3c9a2e</color><scale>0.5</scale><Icon><href>http://maps.google.com/mapfiles/kml/shapes/shaded_dot.png</href></Icon></IconStyle><LabelStyle><scale>0</scale></LabelStyle><LineStyle><color>ff3c9a2e</color><width>3</width></LineStyle><PolyStyle><color>403c9a2e</color></PolyStyle></Style>
<Style id="s3"><IconStyle><color>ffa0479b</color><scale>0.5</scale><Icon><href>http://maps.google.com/mapfiles/kml/shapes/shaded_dot.png</href></Icon></IconStyle><LabelStyle><scale>0</scale></LabelStyle><LineStyle><color>ffa0479b</color><width>3</width></LineStyle><PolyStyle><color>40a0479b</color></PolyStyle></Style>
<Style id="pad"><IconStyle><scale>1.2</scale><Icon><href>http://maps.google.com/mapfiles/kml/shapes/triangle.png</href></Icon></IconStyle></Style>
<Placemark><name>Pad</name><styleUrl>#pad</styleUrl><Point><coordinates>-81.3300000,48.4700000,0</coordinates></Point></Placemark>
<Folder><name>Sustainer (200 landings)</name>
<Placemark><name>Sustainer mean landing</name><description>151 m from the pad; 2-sigma ellipse 728 x 474 m</description><Point><coordinates>-81.3320433,48.4699573,0</coordinates></Point></Placemark>
<Placemark><name>Sustainer 2-sigma ellipse</name><styleUrl>#s0</styleUrl><Polygon><tessellate>1</tessellate><outerBoundaryIs><LinearRing><coordinates>
-81.3271196,48.4702109,0 -81.3271600,48.4703949,0 -81.3272376,48.4705757,0 -81.3273517,48.4707517,0 -81.3275016,48.4709216,0 -81.3276860,48.4710843,0 -81.3279036,48.4712383,0 -81.3281527,48.4713826,0 -81.3284314,48.4715161,0 -81.3287376,48.4716376,0 -81.3290689,48.4717464,0 -81.3294229,48.4718416,0 -81.3297969,48.4719225,0 -81.3301879,48.4719883,0 -81.3305930,48.4720388,0 -81.3310092,48.4720734,0 -81.3314333,48.4720918,0 -81.3318620,48.4720941,0 -81.3322920,48.4720801,0 -81.3327202,48.4720499,0 -81.3331432,48.4720038,0 -81.3335579,48.4719421,0 -81.3339610,48.4718653,0 -81.3343496,48.4717740,0 -81.3347206,48.4716688,0 -81.3350712,48.4715507,0 -81.3353987,48.4714204,0 -81.3357008,48.4712790,0 -81.3359750,48.4711275,0 -81.3362192,48.4709671,0 -81.3364317,48.4707990,0 -81.3366108,48.4706245,0 -81.3367551,48.4704450,0 -81.3368636,48.4702617,0 -81.3369354,48.4700761,0 -81.3369699,48.4698896,0 -81.3369670,48.4697036,0 -81.3369266,48.4695196,0 -81.3368490,48.4693389,0 -81.3367348,48.4691629,0 -81.3365850,48.4689929,0 -81.3364006,48.4688303,0 -81.3361830,48.4686762,0 -81.3359339,48.4685319,0 -81.3356552,48.4683985,0 -81.3353490,48.4682769,0 -81.3350176,48.4681681,0 -81.3346636,48.4680729,0 -81.3342897,48.4679921,0 -81.3338987,48.4679262,0 -81.3334935,48.4678757,0 -81.3330774,48.4678412,0 -81.3326533,48.4678227,0 -81.3322246,48.4678204,0 -81.3317945,48.4678345,0 -81.3313664,48.4678647,0 -81.3309433,48.4679108,0 -81.3305287,48.4679724,0 -81.3301255,48.4680492,0 -81.3297370,48.4681405,0 -81.3293660,48.4682457,0 -81.3290154,48.4683638,0 -81.3286878,48.4684941,0 -81.3283858,48.4686356,0 -81.3281116,48.4687870,0 -81.3278673,48.4689474,0 -81.3276548,48.4691155,0 -81.3274758,48.4692900,0 -81.3273314,48.4694696,0 -81.3272230,48.4696528,0 -81.3271512,48.4698384,0 -81.3271166,48.4700249,0 -81.3271196,48.4702109,0 
</coordinates></LinearRing></outerBoundaryIs></Polygon></Placemark>
<Folder><name>Simulated landings</name>
<Placemark><styleUrl>#s0</styleUrl><Point><coordinates>-81.3281193,48.4704179,0</coordinates></Point></Placemark>
<Placemark><styleUrl>#s0</styleUrl><Point><coordinates>-81.3332977,48.4699668,0</coordinates></Point></Placemark>
<Placemark><styleUrl>#s0</styleUrl><Point><coordinates>-81.3340079,48.4694727,0</coordinates></Point></Placemark>
<Placemark><styleUrl>#s0</styleUrl><Point><coordinates>-81.3309200,48.4709914,0</coordinates></Point></Placemark>
<Placemark><styleUrl>#s0</styleUrl><Point><coordinates>-81.3331604,48.4679409,0</coordinates></Point></Placemark>
<Placemark><styleUrl>#s0</styleUrl><Point><coordinates>-81.3294980,48.4698246,0</coordinates></Point></Placemark>
<Placemark><styleUrl>#s0</styleUrl><Point><coordinates>-81.3395438,48.4706216,0</coordinates></Point></Placemark>
<Placemark><styleUrl>#s0</styleUrl><Point><coordinates>-81.3292106,48.4699387,0</coordinates></Point></Placemark>
<Placemark><styleUrl>#s0</styleUrl><Point><coordinates>-81.3292439,48.4696806,0</coordinates></Point></Placemark>
<Placemark><styleUrl>#s0</styleUrl><Point><coordinates>-81.3266204,48.4701047,0</coordinates></Point></Placemark>
<Placemark><styleUrl>#s0</styleUrl><Point><coordinates>-81.3314416,48.4697954,0</coordinates></Point></Placemark>
<Placemark><styleUrl>#s0</styleUrl><Point><coordinates>-81.3308158,48.4701120,0</coordinates></Point></Placemark>
<Placemark><styleUrl>#s0</styleUrl><Point><coordinates>-81.3351331,48.4702255,0</coordinates></Point></Placemark>
<Placemark><styleUrl>#s0</styleUrl><Point><coordinates>-81.3320836,48.4701014,0</coordinates></Point></Placemark>
<Placemark><styleUrl>#s0</styleUrl><Point><coordinates>-81.3308038,48.4700757,0</coordinates></Point></Placemark>
<Placemark><styleUrl>#s0</styleUrl><Point><coordinates>-81.3300606,48.4700008,0</coordinates></Point></Placemark>
<Placemark><styleUrl>#s0</styleUrl><Point><coordinates>-81.3300182,48.4717944,0</coordinates></Point></Placemark>
<Placemark><styleUrl>#s0</styleUrl><Point><coordinates>-81.3308026,48.4703128,0</coordinates></Point></Placemark>
<Placemark><styleUrl>#s0</styleUrl><Point><coordinates>-81.3338172,48.4703363,0</coordinates></Point></Placemark>
<Placemark><styleUrl>#s0</styleUrl><Point><coordinates>-81.3326575,48.4690099,0</coordinates></Point></Placemark>
<Placemark><styleUrl>#s0</styleUrl><Point><coordinates>-81.3317680,48.4701875,0</coordinates></Point></Placemark>
<Placemark><styleUrl>#s0</styleUrl><Point><coordinates>-81.3336279,48.4698357,0</coordinates></Point></Placemark>
<Placemark><styleUrl>#s0</styleUrl><Point><coordinates>-81.3307273,48.4690210,0</coordinates></Point></Placemark>
<Placemark><styleUrl>#s0</styleUrl><Point><coordinates>-81.3316222,48.4731284,0</coordinates></Point></Placemark>
<Placemark><styleUrl>#s0</styleUrl><Point><coordinates>-81.3338745,48.4717355,0</coordinates></Point></Placemark>
<Placemark><styleUrl>#s0</styleUrl><Point><coordinates>-81.3332413,48.4696936,0</coordinates></Point></Placemark>
<Placemark><styleUrl>#s0</styleUrl><Point><coordinates>-81.3318660,48.4696546,0</coordinates></Point></Placemark>
<Placemark><styleUrl>#s0</styleUrl><Point><coordinates>-81.3342976,48.4689560,0</coordinates></Point></Placemark>
<Placemark><styleUrl>#s0</styleUrl><Point><coordinates>-81.3333944,48.4707762,0</coordinates></Point></Placemark>
<Placemark><styleUrl>#s0</styleUrl><Point><coordinates>-81.3320677,48.4706621,0</coordinates></Point></Placemark>
<Placemark><styleUrl>#s0</styleUrl><Point><coordinates>-81.3287567,48.4700695,0</coordinates></Point></Placemark>
<Placemark><styleUrl>#s0</styleUrl><Point><coordinates>-81.3361928,48.4693826,0</coordinates></Point></Placemark>
<Placemark><styleUrl>#s0</styleUrl><Point><coordinates>-81.3299859,48.4700374,0</coordinates></Point></Placemark>
<Placemark><styleUrl>#s0</styleUrl><Point><coordinates>-81.3334816,48.4699625,0</coordinates></Point></Placemark>
<Placemark><styleUrl>#s0</styleUrl><Point><coordinates>-81.3286498,48.4698402,0</coordinates></Point></Placemark>
<Placemark><styleUrl>#s0</styleUrl><Point><coordinates>-81.3333039,48.4700443,0</coordinates></Point></Placemark>
<Placemark><styleUrl>#s0</styleUrl><Point><coordinates>-81.3359896,48.4700635,0</coordinates></Point></Placemark>
<Placemark><styleUrl>#s0</styleUrl><Point><coordinates>-81.3338194,48.4677158,0</coordinates></Point></Placemark>
<Placemark><styleUrl>#s0</styleUrl><Point><coordinates>-81.3325101,48.4697273,0</coordinates></Point></Placemark>
<Placemark><styleUrl>#s0</styleUrl><Point><coordinates>-81.3294662,48.4702207,0</coordinates></Point></Placemark>
<Placemark><styleUrl>#s0</styleUrl><Point><coordinates>-81.3301571,48.4700131,0</coordinates></Point></Placemark>
<Placemark><styleUrl>#s0</styleUrl><Point><coordinates>-81.3307277,48.4694502,0</coordinates></Point></Placemark>
<Placemark><styleUrl>#s0</styleUrl><Point><coordinates>-81.3312203,48.4702732,0</coordinates></Point></Placemark>
<Placemark><styleUrl>#s0</styleUrl><Point><coordinates>-81.3302030,48.4701060,0</coordinates></Point></Placemark>
<Placemark><styleUrl>#s0</styleUrl><Point><coordinates>-81.3314430,48.4704249,0</coordinates></Point></Placemark>
<Placemark><styleUrl>#s0</styleUrl><Point><coordinates>-81.3321968,48.4683855,0</coordinates></Point></Placemark>
<Placemark><styleUrl>#s0</styleUrl><Point><coordinates>-81.3301277,48.4699679,0</coordinates></Point></Placemark>
<Placemark><styleUrl>#s0</styleUrl><Point><coordinates>-81.3311372,48.4694104,0</coordinates></Point></Placemark>
<Placemark><styleUrl>#s0</styleUrl><Point><coordinates>-81.3303657,48.4698710,0</coordinates></Point></Placemark>
<Placemark><styleUrl>#s0</styleUrl><Point><coordinates>-81.3341547,48.4702322,0</coordinates></Point></Placemark>
<Placemark><styleUrl>#s0</styleUrl><Point><coordinates>-81.3239340,48.4696079,0</coordinates></Point></Placemark>
<Placemark><styleUrl>#s0</styleUrl><Point><coordinates>-81.3333076,48.4694796,0</coordinates></Point></Placemark>
<Placemark><styleUrl>#s0</styleUrl><Point><coordinates>-81.3330577,48.4707370,0</coordinates></Point></Placemark>
<Placemark><styleUrl>#s0</styleUrl><Point><coordinates>-81.3296350,48.4702905,0</coordinates></Point></Placemark>
<Placemark><styleUrl>#s0</styleUrl><Point><coordinates>-81.3319666,48.4697964,0</coordinates></Point></Placemark>
<Placemark><styleUrl>#s0</styleUrl><Point><coordinates>-81.3274609,48.4702097,0</coordinates></Point></Placemark>
<Placemark><styleUrl>#s0</styleUrl><Point><coordinates>-81.3313559,48.4699411,0</coordinates></Point></Placemark>
<Placemark><styleUrl>#s0</styleUrl><Point><coordinates>-81.3305864,48.4699546,0</coordinates></Point></Placemark>
<Placemark><styleUrl>#s0</styleUrl><Point><coordinates>-81.3309364,48.4699381,0</coordinates></Point></Placemark>
<Placemark><styleUrl>#s0</styleUrl><Point><coordinates>-81.3323958,48.4679185,0</coordinates></Point></Placemark>
<Placemark><styleUrl>#s0</styleUrl><Point><coordinates>-81.3302354,48.4698859,0</coordinates></Point></Placemark>
<Placemark><styleUrl>#s0</styleUrl><Point><coordinates>-81.3352357,48.4699501,0</coordinates></Point></Placemark>
<Placemark><styleUrl>#s0</styleUrl><Point><coordinates>-81.3360313,48.4680877,0</coordinates></Point></Placemark>
<Placemark><styleUrl>#s0</styleUrl><Point><coordinates>-81.3293209,48.4697128,0</coordinates></Point></Placemark>
<Placemark><styleUrl>#s0</styleUrl><Point><coordinates>-81.3322700,48.4700749,0</coordinates></Point></Placemark>
<Placemark><styleUrl>#s0</styleUrl><Point><coordinates>-81.3340758,48.4719611,0</coordinates></Point></Placemark>
<Placemark><styleUrl>#s0</styleUrl><Point><coordinates>-81.3321001,48.4663219,0</coordinates></Point></Placemark>
<Placemark><styleUrl>#s0</styleUrl><Point><coordinates>-81.3314731,48.4700425,0</coordinates></Point></Placemark>
<Placemark><styleUrl>#s0</styleUrl><Point><coordinates>-81.3347698,48.4701450,0</coordinates></Point></Placemark>
<Placemark><styleUrl>#s0</styleUrl><Point><coordinates>-81.3335427,48.4698519,0</coordinates></Point></Placemark>
<Placemark><styleUrl>#s0</styleUrl><Point><coordinates>-81.3334658,48.4699664,0</coordinates></Point></Placemark>
<Placemark><styleUrl>#s0</styleUrl><Point><coordinates>-81.3315109,48.4708414,0</coordinates></Point></Placemark>
<Placemark><styleUrl>#s0</styleUrl><Point><coordinates>-81.3326276,48.4749097,0</coordinates></Point></Placemark>
<Placemark><styleUrl>#s0</styleUrl><Point><coordinates>-81.3275523,48.4699213,0</coordinates></Point></Placemark>
<Placemark><styleUrl>#s0</styleUrl><Point><coordinates>-81.3333033,48.4710425,0</coordinates></Point></Placemark>
<Placemark><styleUrl>#s0</styleUrl><Point><coordinates>-81.3336382,48.4705617,0</coordinates></Point></Placemark>
<Placemark><styleUrl>#s0</styleUrl><Point><coordinates>-81.3289239,48.4704189,0</coordinates></Point></Placemark>
<Placemark><styleUrl>#s0</styleUrl><Point><coordinates>-81.3339762,48.4720236,0</coordinates></Point></Placemark>
<Placemark><styleUrl>#s0</styleUrl><Point><coordinates>-81.3324337,48.4699911,0</coordinates></Point></Placemark>
<Placemark><styleUrl>#s0</styleUrl><Point><coordinates>-81.3303741,48.4702002,0</coordinates></Point></Placemark>
<Placemark><styleUrl>#s0</styleUrl><Point><coordinates>-81.3291344,48.4698719,0</coordinates></Point></Placemark>
<Placemark><styleUrl>#s0</styleUrl><Point><coordinates>-81.3313337,48.4687473,0</coordinates></Point></Placemark>
<Placemark><styleUrl>#s0</styleUrl><Point><coordinates>-81.3349962,48.4687394,0</coordinates></Point></Placemark>
<Placemark><styleUrl>#s0</styleUrl><Point><coordinates>-81.3297930,48.4700611,0</coordinates></Point></Placemark>
<Placemark><styleUrl>#s0</styleUrl><Point><coordinates>-81.3330400,48.4689053,0</coordinates></Point></Placemark>
<Placemark><styleUrl>#s0</styleUrl><Point><coordinates>-81.3311418,48.4695772,0</coordinates></Point></Placemark>
<Placemark><styleUrl>#s0</styleUrl><Point><coordinates>-81.3295295,48.4699613,0</coordinates></Point></Placemark>
<Placemark><styleUrl>#s0</styleUrl><Point><coordinates>-81.3347313,48.4692814,0</coordinates></Point></Placemark>
<Placemark><styleUrl>#s0</styleUrl><Point><coordinates>-81.3376754,48.4697720,0</coordinates></Point></Placemark>
<Placemark><styleUrl>#s0</styleUrl><Point><coordinates>-81.3328789,48.4691440,0</coordinates></Point></Placemark>
<Placemark><styleUrl>#s0</styleUrl><Point><coordinates>-81.3370141,48.4695867,0</coordinates></Point></Placemark>
<Placemark><styleUrl>#s0</styleUrl><Point><coordinates>-81.3329883,48.4714841,0</coordinates></Point></Placemark>
<Placemark><styleUrl>#s0</styleUrl><Point><coordinates>-81.3315386,48.4705558,0</coordinates></Point></Placemark>
<Placemark><styleUrl>#s0</styleUrl><Point><coordinates>-81.3337949,48.4708644,0</coordinates></Point></Placemark>
<Placemark><styleUrl>#s0</styleUrl><Point><coordinates>-81.3310468,48.4690903,0</coordinates></Point></Placemark>
<Placemark><styleUrl>#s0</styleUrl><Point><coordinates>-81.3312987,48.4695872,0</coordinates></Point></Placemark>
<Placemark><styleUrl>#s0</styleUrl><Point><coordinates>-81.3341637,48.4709269,0</coordinates></Point></Placemark>
<Placemark><styleUrl>#s0</styleUrl><Point><coordinates>-81.3338377,48.4729265,0</coordinates></Point></Placemark>
<Placemark><styleUrl>#s0</styleUrl><Point><coordinates>-81.3323126,48.4696780,0</coordinates></Point></Placemark>
<Placemark><styleUrl>#s0</styleUrl><Point><coordinates>-81.3317533,48.4694385,0</coordinates></Point></Placemark>
<Placemark><styleUrl>#s0</styleUrl><Point><coordinates>-81.3376436,48.4711567,0</coordinates></Point></Placemark>
<Placemark><styleUrl>#s0</styleUrl><Point><coordinates>-81.3305052,48.4697560,0</coordinates></Point></Placemark>
<Placemark><styleUrl>#s0</styleUrl><Point><coordinates>-81.3315818,48.4706822,0</coordinates></Point></Placemark>
<Placemark><styleUrl>#s0</styleUrl><Point><coordinates>-81.3296319,48.4701455,0</coordinates></Point></Placemark>
<Placemark><styleUrl>#s0</styleUrl><Point><coordinates>-81.3322726,48.4696291,0</coordinates></Point></Placemark>
<Placemark><styleUrl>#s0</styleUrl><Point><coordinates>-81.3323663,48.4694977,0</coordinates></Point></Placemark>
<Placemark><styleUrl>#s0</styleUrl><Point><coordinates>-81.3335519,48.4689790,0</coordinates></Point></Placemark>
<Placemark><styleUrl>#s0</styleUrl><Point><coordinates>-81.3326141,48.4704845,0</coordinates></Point></Placemark>
<Placemark><styleUrl>#s0</styleUrl><Point><coordinates>-81.3288922,48.4701125,0</coordinates></Point></Placemark>
<Placemark><styleUrl>#s0</styleUrl><Point><coordinates>-81.3330626,48.4725177,0</coordinates></Point></Placemark>
<Placemark><styleUrl>#s0</styleUrl><Point><coordinates>-81.3307532,48.4683221,0</coordinates></Point></Placemark>
<Placemark><styleUrl>#s0</styleUrl><Point><coordinates>-81.3299659,48.4699922,0</coordinates></Point></Placemark>
<Placemark><styleUrl>#s0</styleUrl><Point><coordinates>-81.3320924,48.4697334,0</coordinates></Point></Placemark>
<Placemark><styleUrl>#s0</styleUrl><Point><coordinates>-81.3330494,48.4698902,0</coordinates></Point></Placemark>
<Placemark><styleUrl>#s0</styleUrl><Point><coordinates>-81.3309347,48.4697569,0</coordinates></Point></Placemark>
<Placemark><styleUrl>#s0</styleUrl><Point><coordinates>-81.3318515,48.4697017,0</coordinates></Point></Placemark>
<Placemark><styleUrl>#s0</styleUrl><Point><coordinates>-81.3355565,48.4717794,0</coordinates></Point></Placemark>
<Placemark><styleUrl>#s0</styleUrl><Point><coordinates>-81.3283691,48.4699773,0</coordinates></Point></Placemark>
<Placemark><styleUrl>#s0</styleUrl><Point><coordinates>-81.3336009,48.4700851,0</coordinates></Point></Placemark>
<Placemark><styleUrl>#s0</styleUrl><Point><coordinates>-81.3341344,48.4701302,0</coordinates></Point></Placemark>
<Placemark><styleUrl>#s0</styleUrl><Point><coordinates>-81.3321690,48.4705295,0</coordinates></Point></Placemark>
<Placemark><styleUrl>#s0</styleUrl><Point><coordinates>-81.3350747,48.4693914,0</coordinates></Point></Placemark>
<Placemark><styleUrl>#s0</styleUrl><Point><coordinates>-81.3331687,48.4688557,0</coordinates></Point></Placemark>
<Placemark><styleUrl>#s0</styleUrl><Point><coordinates>-81.3339957,48.4690644,0</coordinates></Point></Placemark>
<Placemark><styleUrl>#s0</styleUrl><Point><coordinates>-81.3317127,48.4682978,0</coordinates></Point></Placemark>
<Placemark><styleUrl>#s0</styleUrl><Point><coordinates>-81.3349067,48.4698285,0</coordinates></Point></Placemark>
<Placemark><styleUrl>#s0</styleUrl><Point><coordinates>-81.3333030,48.4700201,0</coordinates></Point></Placemark>
<Placemark><styleUrl>#s0</styleUrl><Point><coordinates>-81.3308602,48.4705064,0</coordinates></Point></Placemark>
<Placemark><styleUrl>#s0</styleUrl><Point><coordinates>-81.3308788,48.4700415,0</coordinates></Point></Placemark>
<Placemark><styleUrl>#s0</styleUrl><Point><coordinates>-81.3302362,48.4699819,0</coordinates></Point></Placemark>
<Placemark><styleUrl>#s0</styleUrl><Point><coordinates>-81.3269996,48.4703281,0</coordinates></Point></Placemark>
<Placemark><styleUrl>#s0</styleUrl><Point><coordinates>-81.3355321,48.4711189,0</coordinates></Point></Placemark>
<Placemark><styleUrl>#s0</styleUrl><Point><coordinates>-81.3314580,48.4697480,0</coordinates></Point></Placemark>
<Placemark><styleUrl>#s0</styleUrl><Point><coordinates>-81.3302788,48.4699758,0</coordinates></Point></Placemark>
<Placemark><styleUrl>#s0</styleUrl><Point><coordinates>-81.3299084,48.4700816,0</coordinates></Point></Placemark>
<Placemark><styleUrl>#s0</styleUrl><Point><coordinates>-81.3344626,48.4711434,0</coordinates></Point></Placemark>
<Placemark><styleUrl>#s0</styleUrl><Point><coordinates>-81.3310843,48.4705197,0</coordinates></Point></Placemark>
<Placemark><styleUrl>#s0</styleUrl><Point><coordinates>-81.3318374,48.4695600,0</coordinates></Point></Placemark>
<Placemark><styleUrl>#s0</styleUrl><Point><coordinates>-81.3309946,48.4699720,0</coordinates></Point></Placemark>
<Placemark><styleUrl>#s0</styleUrl><Point><coordinates>-81.3309316,48.4695512,0</coordinates></Point></Placemark>
<Placemark><styleUrl>#s0</styleUrl><Point><coordinates>-81.3331134,48.4701213,0</coordinates></Point></Placemark>
<Placemark><styleUrl>#s0</styleUrl><Point><coordinates>-81.3269177,48.4707185,0</coordinates></Point></Placemark>
<Placemark><styleUrl>#s0</styleUrl><Point><coordinates>-81.3358042,48.4692470,0</coordinates></Point></Placemark>
<Placemark><styleUrl>#s0</styleUrl><Point><coordinates>-81.3329280,48.4688463,0</coordinates></Point></Placemark>
<Placemark><styleUrl>#s0</styleUrl><Point><coordinates>-81.3359781,48.4694311,0</coordinates></Point></Placemark>
<Placemark><styleUrl>#s0</styleUrl><Point><coordinates>-81.3335070,48.4691780,0</coordinates></Point></Placemark>
<Placemark><styleUrl>#s0</styleUrl><Point><coordinates>-81.3339369,48.4694031,0</coordinates></Point></Placemark>
<Placemark><styleUrl>#s0</styleUrl><Point><coordinates>-81.3308775,48.4688635,0</coordinates></Point></Placemark>
<Placemark><styleUrl>#s0</styleUrl><Point><coordinates>-81.3295337,48.4700400,0</coordinates></Point></Placemark>
<Placemark><styleUrl>#s0</styleUrl><Point><coordinates>-81.3331745,48.4712116,0</coordinates></Point></Placemark>
<Placemark><styleUrl>#s0</styleUrl><Point><coordinates>-81.3329346,48.4714629,0</coordinates></Point></Placemark>
<Placemark><styleUrl>#s0</styleUrl><Point><coordinates>-81.3343855,48.4667596,0</coordinates></Point></Placemark>
<Placemark><styleUrl>#s0</styleUrl><Point><coordinates>-81.3351000,48.4704996,0</coordinates></Point></Placemark>
<Placemark><styleUrl>#s0</styleUrl><Point><coordinates>-81.3342177,48.4664619,0</coordinates></Point></Placemark>
<Placemark><styleUrl>#s0</styleUrl><Point><coordinates>-81.3321078,48.4694094,0</coordinates></Point></Placemark>
<Placemark><styleUrl>#s0</styleUrl><Point><coordinates>-81.3289444,48.4697512,0</coordinates></Point></Placemark>
<Placemark><styleUrl>#s0</styleUrl><Point><coordinates>-81.3311870,48.4700459,0</coordinates></Point></Placemark>
<Placemark><styleUrl>#s0</styleUrl><Point><coordinates>-81.3311740,48.4701809,0</coordinates></Point></Placemark>
<Placemark><styleUrl>#s0</styleUrl><Point><coordinates>-81.3312720,48.4697740,0</coordinates></Point></Placemark>
<Placemark><styleUrl>#s0</styleUrl><Point><coordinates>-81.3319599,48.4689522,0</coordinates></Point></Placemark>
<Placemark><styleUrl>#s0</styleUrl><Point><coordinates>-81.3342825,48.4711990,0</coordinates></Point></Placemark>
<Placemark><styleUrl>#s0</styleUrl><Point><coordinates>-81.3393572,48.4686882,0</coordinates></Point></Placemark>
<Placemark><styleUrl>#s0</styleUrl><Point><coordinates>-81.3284707,48.4700446,0</coordinates></Point></Placemark>
<Placemark><styleUrl>#s0</styleUrl><Point><coordinates>-81.3360445,48.4677648,0</coordinates></Point></Placemark>
<Placemark><styleUrl>#s0</styleUrl><Point><coordinates>-81.3310065,48.4700677,0</coordinates></Point></Placemark>
<Placemark><styleUrl>#s0</styleUrl><Point><coordinates>-81.3352052,48.4696905,0</coordinates></Point></Placemark>
<Placemark><styleUrl>#s0</styleUrl><Point><coordinates>-81.3293413,48.4700507,0</coordinates></Point></Placemark>
<Placemark><styleUrl>#s0</styleUrl><Point><coordinates>-81.3325594,48.4712933,0</coordinates></Point></Placemark>
<Placemark><styleUrl>#s0</styleUrl><Point><coordinates>-81.3297089,48.4698884,0</coordinates></Point></Placemark>
<Placemark><styleUrl>#s0</styleUrl><Point><coordinates>-81.3311570,48.4700128,0</coordinates></Point></Placemark>
<Placemark><styleUrl>#s0</styleUrl><Point><coordinates>-81.3320084,48.4691712,0</coordinates></Point></Placemark>
<Placemark><styleUrl>#s0</styleUrl><Point><coordinates>-81.3336891,48.4717809,0</coordinates></Point></Placemark>
<Placemark><styleUrl>#s0</styleUrl><Point><coordinates>-81.3332340,48.4703494,0</coordinates></Point></Placemark>
<Placemark><styleUrl>#s0</styleUrl><Point><coordinates>-81.3324246,48.4689701,0</coordinates></Point></Placemark>
<Placemark><styleUrl>#s0</styleUrl><Point><coordinates>-81.3293841,48.4698966,0</coordinates></Point></Placemark>
<Placemark><styleUrl>#s0</styleUrl><Point><coordinates>-81.3359420,48.4684012,0</coordinates></Point></Placemark>
<Placemark><styleUrl>#s0</styleUrl><Point><coordinates>-81.3345345,48.4707056,0</coordinates></Point></Placemark>
<Placemark><styleUrl>#s0</styleUrl><Point><coordinates>-81.3329709,48.4679790,0</coordinates></Point></Placemark>
<Placemark><styleUrl>#s0</styleUrl><Point><coordinates>-81.3257847,48.4700872,0</coordinates></Point></Placemark>
<Placemark><styleUrl>#s0</styleUrl><Point><coordinates>-81.3319772,48.4694050,0</coordinates></Point></Placemark>
<Placemark><styleUrl>#s0</styleUrl><Point><coordinates>-81.3319061,48.4699316,0</coordinates></Point></Placemark>
<Placemark><styleUrl>#s0</styleUrl><Point><coordinates>-81.3317586,48.4725346,0</coordinates></Point></Placemark>
<Placemark><styleUrl>#s0</styleUrl><Point><coordinates>-81.3268037,48.4709779,0</coordinates></Point></Placemark>
<Placemark><styleUrl>#s0</styleUrl><Point><coordinates>-81.3340191,48.4694965,0</coordinates></Point></Placemark>
<Placemark><styleUrl>#s0</styleUrl><Point><coordinates>-81.3296504,48.4700056,0</coordinates></Point></Placemark>
<Placemark><styleUrl>#s0</styleUrl><Point><coordinates>-81.3301740,48.4700144,0</coordinates></Point></Placemark>
<Placemark><styleUrl>#s0</styleUrl><Point><coordinates>-81.3291022,48.4700502,0</coordinates></Point></Placemark>
<Placemark><styleUrl>#s0</styleUrl><Point><coordinates>-81.3331128,48.4691220,0</coordinates></Point></Placemark>
<Placemark><styleUrl>#s0</styleUrl><Point><coordinates>-81.3346702,48.4709732,0</coordinates></Point></Placemark>
<Placemark><styleUrl>#s0</styleUrl><Point><coordinates>-81.3367551,48.4665406,0</coordinates></Point></Placemark>
<Placemark><styleUrl>#s0</styleUrl><Point><coordinates>-81.3331009,48.4698740,0</coordinates></Point></Placemark>
<Placemark><styleUrl>#s0</styleUrl><Point><coordinates>-81.3283160,48.4702853,0</coordinates></Point></Placemark>
<Placemark><styleUrl>#s0</styleUrl><Point><coordinates>-81.3360899,48.4710455,0</coordinates></Point></Placemark>
<Placemark><styleUrl>#s0</styleUrl><Point><coordinates>-81.3332296,48.4691902,0</coordinates></Point></Placemark>
<Placemark><styleUrl>#s0</styleUrl><Point><coordinates>-81.3320830,48.4706675,0</coordinates></Point></Placemark>
<Placemark><styleUrl>#s0</styleUrl><Point><coordinates>-81.3306260,48.4697682,0</coordinates></Point></Placemark>
<Placemark><styleUrl>#s0</styleUrl><Point><coordinates>-81.3277851,48.4695948,0</coordinates></Point></Placemark>
<Placemark><styleUrl>#s0</styleUrl><Point><coordinates>-81.3262094,48.4691724,0</coordinates></Point></Placemark>
<Placemark><styleUrl>#s0</styleUrl><Point><coordinates>-81.3319101,48.4721232,0</coordinates></Point></Placemark>
<Placemark><styleUrl>#s0</styleUrl><Point><coordinates>-81.3338625,48.4718790,0</coordinates></Point></Placemark>
</Folder>
</Folder>
</Document>
</kml>
